{
"type": "FeatureCollection",
"name": "amenity_points",
"crs": { "type": "name", "properties": { "name": "urn:ogc:def:crs:OGC:1.3:CRS84" } },
"features": [
{ "type": "Feature", "properties": { "osm_id": 6997317722, "amenity": "clinic", "name": "Kharbanda Maternity and Nursing Home", "addr:postcode": "122001", "addr:full": "New Railway Road", "addr:district": "Gurgaon", "addr:state": "Haryana", "website": null, "operator:type": null, "healthcare:speciality": null, "email": null }, "geometry": { "type": "Point", "coordinates": [ 77.0268778, 28.4668863 ] } },
{ "type": "Feature", "properties": { "osm_id": 7622826278, "amenity": "dentist", "name": "Dentecare - Multispeciality Dental Clinic", "addr:postcode": "122001", "addr:full": "366, New Railway Road, Near Lall Nursing Home, Sector 12A, Jacobpura, Sector 12", "addr:district": "Gurugram", "addr:state": "Haryana", "website": null, "operator:type": null, "healthcare:speciality": null, "email": null }, "geometry": { "type": "Point", "coordinates": [ 77.0271745, 28.4668874 ] } },
{ "type": "Feature", "properties": { "osm_id": 7002917150, "amenity": "hospital", "name": "Lall Eye Care Centre", "addr:postcode": "122001", "addr:full": "New Railway Road", "addr:district": "Gurgaon", "addr:state": "Haryana", "website": "http:\/\/www.lallhospital.com\/", "operator:type": "private", "healthcare:speciality": "Eye care", "email": "ashishlall@rediffmail.com" }, "geometry": { "type": "Point", "coordinates": [ 77.0272123, 28.4667015 ] } },
{ "type": "Feature", "properties": { "osm_id": 7622826306, "amenity": "dentist", "name": "Om Charitable Dental & Implant Centre", "addr:postcode": "122001", "addr:full": "New Railway Road, Opposite Lall Nursing Home, Manohar Nagar, Sector 12", "addr:district": "Gurugram", "addr:state": "Haryana", "website": null, "operator:type": null, "healthcare:speciality": null, "email": null }, "geometry": { "type": "Point", "coordinates": [ 77.0272677, 28.4667458 ] } },
{ "type": "Feature", "properties": { "osm_id": 7001015603, "amenity": "hospital", "name": "Lall Nursing and Maternity Home", "addr:postcode": "122001", "addr:full": "3654, New Railway Road", "addr:district": "Gurgaon", "addr:state": "Haryana", "website": "http:\/\/www.lallhospital.com\/", "operator:type": "private", "healthcare:speciality": "Medicine; Pediatrics; ENT; Gynaecology; Surgery; Orthopedics; Skin; Psychiatry Eye", "email": "ashishlall@rediffmail.com" }, "geometry": { "type": "Point", "coordinates": [ 77.027307, 28.4667802 ] } },
{ "type": "Feature", "properties": { "osm_id": 7622826262, "amenity": "dentist", "name": "Dental Health Centre", "addr:postcode": "122001", "addr:full": "303\/1, New Railway Road, Lajpat Nagar, Block A, Mianwali Colony, Sector 12", "addr:district": "Gurugram", "addr:state": "Haryana", "website": null, "operator:type": null, "healthcare:speciality": null, "email": null }, "geometry": { "type": "Point", "coordinates": [ 77.0282192, 28.4664265 ] } }
]
}
